{
    "links": {
        "self": "http://www.neowsapp.com/rest/v1/neo/3837609?api_key=iIulBulltgU6a56xZRHN4H3l9WmuAYTsLGpBGhQ2"
    },
    "id": "3837609",
    "neo_reference_id": "3837609",
    "name": "(2019 AW2)",
    "designation": "2019 AW2",
    "nasa_jpl_url": "http://ssd.jpl.nasa.gov/sbdb.cgi?sstr=3837609",
    "absolute_magnitude_h": 25.3,
    "estimated_diameter": {
        "kilometers": {
            "estimated_diameter_min": 0.0231502122,
            "estimated_diameter_max": 0.0517654482
        },
        "meters": {
            "estimated_diameter_min": 23.150212221,
            "estimated_diameter_max": 51.7654482198
        },
        "miles": {
            "estimated_diameter_min": 0.0143848705,
            "estimated_diameter_max": 0.0321655483
        },
        "feet": {
            "estimated_diameter_min": 75.9521422633,
            "estimated_diameter_max": 169.8341531374
        }
    },
    "is_potentially_hazardous_asteroid": false,
    "close_approach_data": [
        {
            "close_approach_date": "1962-02-19",
            "close_approach_date_full": "1962-Feb-19 05:50",
            "epoch_date_close_approach": -248206200000,
            "relative_velocity": {
                "kilometers_per_second": "14.5638223197",
                "kilometers_per_hour": "52429.760350744",
                "miles_per_hour": "32577.8141468275"
            },
            "miss_distance": {
                "astronomical": "0.0591822354",
                "lunar": "23.0218895706",
                "kilometers": "8853536.357678598",
                "miles": "5501332.3924887324"
            },
            "orbiting_body": "Mars"
        },
        {
            "close_approach_date": "1967-08-20",
            "close_approach_date_full": "1967-Aug-20 21:40",
            "epoch_date_close_approach": -74658000000,
            "relative_velocity": {
                "kilometers_per_second": "18.3120377644",
                "kilometers_per_hour": "65923.3359519127",
                "miles_per_hour": "40962.1972752315"
            },
            "miss_distance": {
                "astronomical": "0.2157235002",
                "lunar": "83.9164415778",
                "kilometers": "32271776.138864574",
                "miles": "20052751.8342321612"
            },
            "orbiting_body": "Earth"
        },
        {
            "close_approach_date": "2018-12-28",
            "close_approach_date_full": "2018-Dec-28 12:36",
            "epoch_date_close_approach": 1546000560000,
            "relative_velocity": {
                "kilometers_per_second": "14.0442809419",
                "kilometers_per_hour": "50559.4113908166",
                "miles_per_hour": "31415.6520389216"
            },
            "miss_distance": {
                "astronomical": "0.0011044682",
                "lunar": "0.4296381298",
                "kilometers": "165226.090202734",
                "miles": "102666.7317323692"
            },
            "orbiting_body": "Earth"
        },
        {
            "close_approach_date": "2018-12-28",
            "close_approach_date_full": "2018-Dec-28 15:43",
            "epoch_date_close_approach": 1546011780000,
            "relative_velocity": {
                "kilometers_per_second": "14.8251084802",
                "kilometers_per_hour": "53370.3905286984",
                "miles_per_hour": "33162.285159346"
            },
            "miss_distance": {
                "astronomical": "0.0031925126",
                "lunar": "1.2418874014",
                "kilometers": "477593.084908162",
                "miles": "296762.5818981556"
            },
            "orbiting_body": "Moon"
        },
        {
            "close_approach_date": "2021-08-12",
            "close_approach_date_full": "2021-Aug-12 20:30",
            "epoch_date_close_approach": 1628800200000,
            "relative_velocity": {
                "kilometers_per_second": "24.5167855511",
                "kilometers_per_hour": "88260.4279839305",
                "miles_per_hour": "54841.5975992372"
            },
            "miss_distance": {
                "astronomical": "0.4094180459",
                "lunar": "159.2636198551",
                "kilometers": "61248067.606202233",
                "miles": "38057784.4475794954"
            },
            "orbiting_body": "Earth"
        }
    ],
    "orbital_data": {
        "orbit_id": "8",
        "orbit_determination_date": "2019-04-18 07:56:16",
        "first_observation_date": "2019-01-03",
        "last_observation_date": "2019-01-17",
        "data_arc_in_days": 14,
        "observations_used": 41,
        "orbit_uncertainty": "7",
        "minimum_orbit_intersection": ".000853414",
        "jupiter_tisserand_invariant": "3.589",
        "epoch_osculation": "2459000.5",
        "eccentricity": ".5818527749636864",
        "semi_major_axis": "2.008331675477948",
        "inclination": "8.81307303229638",
        "ascending_node_longitude": "96.58551325637151",
        "orbital_period": "1039.564843509216",
        "perihelion_distance": ".8397783170536343",
        "perihelion_argument": "306.7482831590677",
        "aphelion_distance": "3.176885033902261",
        "perihelion_time": "2459483.692621932405",
        "mean_anomaly": "192.6710017352336",
        "mean_motion": ".3462987443715037",
        "equinox": "J2000",
        "orbit_class": {
            "orbit_class_type": "APO",
            "orbit_class_description": "Near-Earth asteroid orbits which cross the Earth’s orbit similar to that of 1862 Apollo",
            "orbit_class_range": "a (semi-major axis) > 1.0 AU; q (perihelion) < 1.017 AU"
        }
    },
    "is_sentry_object": false
}